1 08820U 76039A   03292.75942584 -.00000004  00000-0  10000-3 0  9790
2 08820 109.8222 224.2358 0044351 274.7604  84.7919  6.38664568385014
